TDRS 3                  
1 19548U 88091B   22344.91293005 -.00000290  00000+0  00000+0 0  9997
2 19548  13.5865 349.9544 0039768 328.7200  40.6415  1.00265884112491
FLTSATCOM 8 (USA 46)    
1 20253U 89077A   22344.80540109 -.00000070  00000+0  00000+0 0  9991
2 20253  12.8078 359.0572 0003550 167.2050 275.0797  1.00273165247730
SKYNET 4C               
1 20776U 90079A   22344.71410677  .00000134  00000+0  00000+0 0  9991
2 20776  13.7535 358.7420 0003347 260.8970 110.3527  1.00267686118067
TDRS 5                  
1 21639U 91054B   22344.71491984  .00000094  00000+0  00000+0 0  9999
2 21639  14.2240   3.2754 0024806 350.9418 175.1999  1.00281947114837
TDRS 6                  
1 22314U 93003B   22345.10429265 -.00000286  00000+0  00000+0 0  9997
2 22314  14.1419   6.5330 0007953 144.1574 280.7487  1.00276288109506
UFO 2 (USA 95)          
1 22787U 93056A   22344.71323512  .00000135  00000+0  00000+0 0  9995
2 22787  11.5093  10.2136 0005095 248.4394 106.2538  1.00270591105661
USA 99 (MILSTAR-1 1)    
1 22988U 94009A   22345.21920943 -.00000190  00000+0  00000+0 0  9996
2 22988  15.6311  41.2552 0004134 221.2953 166.3158  1.00273794 18779
USA 107 (DSP 17)        
1 23435U 94084A   22345.12112142 -.00000158  00000+0  00000+0 0  9995
2 23435  14.5768   4.3524 0001363 253.3353 129.1724  1.00276035 18824
UFO 4 (USA 108)         
1 23467U 95003A   22344.83601095 -.00000011  00000+0  00000+0 0  9997
2 23467   9.8039  17.2427 0002327 184.2077 351.4097  1.00275054102072
AMSC 1                  
1 23553U 95019A   22344.61439014 -.00000085  00000+0  00000+0 0  9997
2 23553  12.1097  25.0515 0005735 238.8201 289.1330  1.00272705101295
TDRS 7                  
1 23613U 95035B   22344.77213466 -.00000194  00000+0  00000+0 0  9991
2 23613  13.9103 357.2396 0023952  52.0385  33.0145  1.00273926100370
USA 115 (MILSTAR-1 2)   
1 23712U 95060A   22344.59120957 -.00000011  00000+0  00000+0 0  9999
2 23712  13.5928  13.0013 0003358 243.0493 276.0315  1.00274309 20009
INMARSAT 3-F1           
1 23839U 96020A   22344.86008174 -.00000346  00000+0  00000+0 0  9993
2 23839   7.9039  56.9556 0004847 176.1502 285.6112  0.99996348 97419
INMARSAT 3-F2           
1 24307U 96053A   22344.00743903  .00000021  00000+0  00000+0 0  9991
2 24307   6.9150  65.6352 0002337 172.6661 212.2062  0.99999521 96070
AMC-1 (GE-1)            
1 24315U 96054A   22344.33787633  .00000076  00000+0  00000+0 0  9995
2 24315   6.0351  71.6417 0003806 190.8996 167.2363  1.00272039 33432
INMARSAT 3-F3           
1 24674U 96070A   22344.55892531 -.00000031  00000+0  00000+0 0  9991
2 24674   7.5131  60.5147 0005344 186.1831 287.0683  0.99981163 95069
GALAXY 25 (G-25)        
1 24812U 97026A   22341.16091227  .00000039  00000+0  00000+0 0  9991
2 24812   4.1191  81.9100 0010396 270.6553 207.1521  1.00120521 93463
INTELSAT 5 (IS-5)       
1 24916U 97046A   22344.79333729 -.00000052  00000+0  00000+0 0  9992
2 24916   7.6037  59.8114 0005787 187.3589 284.0743  1.00271152 92742
AMC-3 (GE-3)            
1 24936U 97050A   22345.28463799 -.00000247  00000+0  00000+0 0  9991
2 24936   4.9766  77.8053 0003454 186.5677 206.0765  1.00271967 92576
USA 134                 
1 25019U 97065A   22344.23525955 -.00000052  00000+0  00000+0 0  9991
2 25019  11.2560  30.3996 0002786 275.6809 105.1835  1.00274655 20076
ASTRA 1G                
1 25071U 97076A   22344.92652778  .00000127  00000+0  00000+0 0  9993
2 25071   6.6478  66.9170 0003992 196.0823 169.5676  1.00272070 91660
INMARSAT 3-F5           
1 25153U 98006B   22344.26912373 -.00000278  00000+0  00000+0 0  9993
2 25153   6.7911  64.5532 0005106 199.6322 217.6646  1.00270150 91010
UFO 8 (USA 138)         
1 25258U 98016A   22344.67902236  .00000117  00000+0  00000+0 0  9993
2 25258   9.6179  29.1778 0002272 225.6302 263.6683  1.00336156 90977
ASTRA 2A                
1 25462U 98050A   22344.79767067  .00000083  00000+0  00000+0 0  9994
2 25462   3.8441  83.6642 0003421 175.2056 164.9925  1.00270415 33457
SKYNET 4E               
1 25639U 99009B   22344.82271865 -.00000024  00000+0  00000+0 0  9991
2 25639  11.3359  15.9857 0003352 238.6204 119.8624  1.00272209 38502
ABS-7                   
1 25894U 99046A   22345.15026556  .00000096  00000+0  00000+0 0  9995
2 25894   3.2065  85.7437 0001489 131.4950 338.6640  0.99954344 84251
ABS-6                   
1 25924U 99053A   22345.09779219 -.00000103  00000+0  00000+0 0  9991
2 25924   0.0142 100.0177 0002714 172.2870   1.7176  1.00271961 84964
AMC-4 (GE-4)            
1 25954U 99060A   22345.16466310  .00000102  00000+0  00000+0 0  9993
2 25954   1.9652  89.8056 0003252 176.5036  97.9372  1.00271449 84610
UFO 10 (USA 146)        
1 25967U 99063A   22344.98981932 -.00000177  00000+0  00000+0 0  9994
2 25967   8.9285  32.8323 0004123 209.2780 170.9768  1.00268973 84468
GALAXY 11 (G-11)        
1 26038U 99071A   22345.37916508 -.00000148  00000+0  00000+0 0  9992
2 26038   3.4691  85.4166 0002130 219.8889 178.1724  1.00271718 84206
USA 148                 
1 26052U 00001A   22345.37271736  .00000048  00000+0  00000+0 0  9998
2 26052   9.8179  41.3341 0002342 220.3104 132.7043  1.00272421 18749
ASIASTAR                
1 26107U 00016A   22344.85133505 -.00000322  00000+0  00000+0 0  9994
2 26107   6.0937  70.5310 0005160 190.8237 229.6852  1.00273588 83044
USA 149 (DSP 20)        
1 26356U 00024A   22344.68229937  .00000105  00000+0  00000+0 0  9993
2 26356  12.2094  20.3675 0000696 157.4483 342.1547  1.00260084 20030
TDRS 8                  
1 26388U 00034A   22344.74422512 -.00000226  00000+0  00000+0 0  9995
2 26388  10.6454  41.3302 0017978 331.4586  64.0239  1.00271835 82308
INTELSAT 9 (IS-9)       
1 26451U 00043A   22345.10466119 -.00000276  00000+0  00000+0 0  9993
2 26451   7.5897  59.9918 0004150 198.1481 169.3464  1.00270893 81977
NSS-11 (AAP-1)          
1 26554U 00059A   22344.88599606  .00000041  00000+0  00000+0 0  9995
2 26554   0.0133 347.1159 0002528 284.4396 303.0082  1.00272129 81294
USA 153                 
1 26575U 00065A   22344.78214443 -.00000314  00000+0  00000+0 0  9991
2 26575   9.3978  44.6663 0002480 229.9573 220.9270  1.00270194 20056
AMC-6 (GE-6)            
1 26580U 00067A   22344.67958948  .00000120  00000+0  00000+0 0  9996
2 26580   0.0162 327.7998 0003274 300.1914 277.0456  1.00271139 81038
INTELSAT 1R (IS-1R)     
1 26608U 00072A   22344.57410536 -.00000126  00000+0  00000+0 0  9995
2 26608   4.8397  78.9024 0000286 271.1499  93.0189  1.00271657 28441
ANIK F1                 
1 26624U 00076A   22345.28361896 -.00000047  00000+0  00000+0 0  9992
2 26624   1.8820  90.4574 0003342 131.4107 211.0072  1.00272717 80850
ASTRA 2D                
1 26638U 00081A   22344.92739943  .00000140  00000+0  00000+0 0  9998
2 26638   7.6656  59.0916 0001920 209.0453 169.0372  1.00269981 80510
AMC-8 (GE-8)            
1 26639U 00081B   22344.83518080 -.00000200  00000+0  00000+0 0  9994
2 26639   2.8040  87.9220 0004649 202.1058 259.2618  0.99153976 80393
USA 157 (MILSTAR-2 2)   
1 26715U 01009A   22344.68272741  .00000022  00000+0  00000+0 0  9995
2 26715  10.1763  26.5059 0004428 233.3965 301.1350  1.00277781 20072
EUTELSAT 133 WEST A     
1 26719U 01011A   22344.51947119  .00000014  00000+0  00000+0 0  9993
2 26719   4.1469  81.0410 0005390 144.6528 275.6736  1.00516928 79691
INTELSAT 10 (IS-10)     
1 26766U 01019A   22344.64798411  .00000046  00000+0  00000+0 0  9991
2 26766   5.9955  71.8419 0004398 187.3363 231.2496  1.00271357 32746
INTELSAT 901 (IS-901)   
1 26824U 01024A   22345.18591080 -.00000186  00000+0  00000+0 0  9991
2 26824   0.0172  44.5020 0000966 236.1401 198.6883  1.00271049 78717
ASTRA 2C                
1 26853U 01025A   22345.13548834 -.00000246  00000+0  00000+0 0  9995
2 26853   5.0004  77.6150 0003414 190.3304 148.2107  1.00271377 78694
USA 159 (DSP 21)        
1 26880U 01033A   22344.98467659 -.00000288  00000+0  00000+0 0  9997
2 26880  11.5835  24.7074 0000398  33.5339 326.8936  1.00272456 18743
INTELSAT 902 (IS-902)   
1 26900U 01039A   22344.76928218 -.00000268  00000+0  00000+0 0  9993
2 26900   2.8487  87.0353 0003574 188.1006  31.1766  1.00270253 77814
USA 164 (MILSTAR-2 3)   
1 27168U 02001A   22344.89305297  .00000110  00000+0  00000+0 0  9995
2 27168   9.6953  28.3038 0003006 230.3830 161.3413  1.00272211 18778
INTELSAT 904 (IS-904)   
1 27380U 02007A   22345.18591080 -.00000200  00000+0  00000+0 0  9998
2 27380   3.6789  84.0411 0003342 185.5911 207.6728  1.00270813 76215
TDRS 9                  
1 27389U 02011A   22345.20837080 -.00000277  00000+0  00000+0 0  9992
2 27389   9.3957  59.2036 0025817 294.1353  99.3903  1.00272234 77568
NSS-7                   
1 27414U 02019A   22345.06216628 -.00000146  00000+0  00000+0 0  9997
2 27414   6.3114  69.8405 0002539 197.0753 175.2167  1.00271510 75680
DIRECTV 5 (TEMPO 1)     
1 27426U 02023A   22345.36532605 -.00000041  00000+0  00000+0 0  9998
2 27426   1.5763  91.0815 0003496 172.6570 197.7267  1.00271978 75432
INTELSAT 905 (IS-905)   
1 27438U 02027A   22345.13300687 -.00000170  00000+0  00000+0 0  9996
2 27438   3.5013  84.7601 0003030 168.8028 209.6505  1.00273431 75092
GALAXY 3C (G-3C)        
1 27445U 02030A   22345.12232962 -.00000137  00000+0  00000+0 0  9990
2 27445   0.4274  91.8498 0001523 215.1104  82.0730  1.00272810 75075
EUTELSAT 5 WEST A       
1 27460U 02035A   22345.13684213 -.00000028  00000+0  00000+0 0  9992
2 27460   2.7511  87.3728 0005953 180.2449 216.4768  1.00271461 74874
INTELSAT 906 (IS-906)   
1 27513U 02041A   22345.49766160  .00000030  00000+0  00000+0 0  9991
2 27513   2.5202  88.4392 0004771 167.6002  67.4417  1.00271038 74097
TDRS 10                 
1 27566U 02055A   22344.63482365  .00000099  00000+0  00000+0 0  9996
2 27566   8.5253  48.9623 0005252 313.8423 133.9023  1.00273419 73357
NSS-6                   
1 27603U 02057A   22344.74548615  .00000123  00000+0  00000+0 0  9991
2 27603   2.0553  89.5873 0004008 175.0979 273.6516  1.00270545 73166
